     2.100          NAVIGATION                              RINEX VERSION / TYPE
fic2rin                                 12/17/2009 00:51:25 PGM / RUN BY / DATE
                                                            END OF HEADER
22 09 12 16  9 59 44.0  .183898489922D-03 -.682121026330D-12  .000000000000D+00
     .400000000000D+01  .121187500000D+03  .468948104999D-08  .148768043131D+01
     .623986124992D-05  .519366352819D-02  .101793557405D-04  .515366918564D+04
     .295184000000D+06 -.121071934700D-06 -.295358616380D+01 -.987201929092D-07
     .937623251063D+00  .169718750000D+03 -.187555018344D+01 -.802890586473D-08
    -.126790995640D-09  .100000000000D+01  .156200000000D+04  .000000000000D+00
     .240000000000D+01  .000000000000D+00 -.176951289177D-07  .400000000000D+01
     .288006000000D+06  .400000000000D+01
 1 09 12 16 10  0  0.0 -.712759792805D-04 -.272848410532D-11  .000000000000D+00
     .790000000000D+02 -.795625000000D+02  .542629745564D-08  .262777497948D+01
    -.409968197346D-05  .380867626518D-02  .113248825073D-04  .515366955185D+04
     .295200000000D+06 -.428408384323D-07  .151432861935D+00 -.409781932831D-07
     .963345229093D+00  .160812500000D+03  .956390362937D+00 -.758138722378D-08
     .406802659249D-09  .100000000000D+01  .156200000000D+04  .000000000000D+00
     .240000000000D+01  .630000000000D+02 -.190921127796D-07  .790000000000D+02
     .288006000000D+06  .400000000000D+01
 2 09 12 16 10  0  0.0  .204198528081D-03  .454747350886D-11  .000000000000D+00
     .600000000000D+02 -.157500000000D+02  .522093175848D-08  .443009103622D-01
    -.970438122749D-06  .921179575380D-02  .722706317902D-05  .515374349594D+04
     .295200000000D+06  .167638063431D-06  .223716608148D+01  .372529029846D-08
     .940207242766D+00  .232093750000D+03  .292688321874D+01 -.831606068302D-08
    -.630740558590D-09  .100000000000D+01  .156200000000D+04  .000000000000D+00
     .240000000000D+01  .000000000000D+00 -.172294676304D-07  .600000000000D+02
     .288006000000D+06  .400000000000D+01
 4 09 12 16 10  0  0.0 -.409509055316D-03 -.187583282241D-10  .000000000000D+00
     .840000000000D+02 -.150312500000D+02  .508735476589D-08  .294264359509D+01
    -.899657607079D-06  .911277835257D-02  .750273466110D-05  .515359041786D+04
     .295200000000D+06 -.763684511185D-07  .225526545025D+01 -.726431608200D-07
     .939395950823D+00  .224593750000D+03  .573698389915D+00 -.803962059675D-08
    -.617168564691D-09  .100000000000D+01  .156200000000D+04  .000000000000D+00
     .240000000000D+01  .000000000000D+00 -.605359673500D-08  .840000000000D+02
     .288006000000D+06  .400000000000D+01
 5 09 12 16 10  0  0.0 -.281976535916D-04  .522959453519D-11  .000000000000D+00
     .107000000000D+03  .111250000000D+03  .412695761864D-08  .146483503445D+01
     .591948628426D-05  .176881509833D-02  .968948006630D-05  .515362272453D+04
     .295200000000D+06 -.223517417908D-07 -.298788331850D+01 -.745058059692D-08
     .960890121936D+00  .193937500000D+03  .264286351947D+00 -.771139263903D-08
    -.158578033983D-09  .100000000000D+01  .156200000000D+04  .000000000000D+00
     .240000000000D+01  .000000000000D+00 -.884756445885D-08  .107000000000D+03
     .288006000000D+06  .400000000000D+01
 6 09 12 16 10  0  0.0  .263517722487D-03 -.341060513165D-12  .000000000000D+00
     .760000000000D+02  .130625000000D+02  .546058459812D-08  .211130473060D+01
     .713393092155D-06  .580447423272D-02  .579655170441D-05  .515365678406D+04
     .295200000000D+06  .968575477600D-07  .115574648571D+01 -.465661287308D-07
     .933773533861D+00  .247906250000D+03 -.118755057491D+01 -.823748598150D-08
     .310370071016D-09  .100000000000D+01  .156200000000D+04  .000000000000D+00
     .240000000000D+01  .000000000000D+00 -.512227416039D-08  .760000000000D+02
     .288006000000D+06  .400000000000D+01
 7 09 12 16 10  0  0.0  .590272247791D-05 -.682121026330D-12  .000000000000D+00
     .530000000000D+02 -.119312500000D+03  .430267922386D-08 -.167866598114D+01
    -.634975731373D-05  .324576860294D-02  .354088842869D-05  .515373369789D+04
     .295200000000D+06  .186264514923D-08 -.887921696268D+00 -.596046447754D-07
     .969870256269D+00  .317593750000D+03  .305476933163D+01 -.810176604250D-08
    -.133576992589D-09  .100000000000D+01  .156200000000D+04  .000000000000D+00
     .240000000000D+01  .000000000000D+00 -.107102096081D-07  .530000000000D+02
     .288006000000D+06  .400000000000D+01
 8 09 12 16 10  0  0.0  .962521880865D-06  .568434188608D-12  .000000000000D+00
     .460000000000D+02 -.125218750000D+03  .381123018161D-08 -.227520053398D+01
    -.650249421597D-05  .110127668595D-01  .466220080853D-05  .515374302483D+04
     .295200000000D+06 -.180676579475D-06 -.823363215057D+00 -.156462192535D-06
     .991193953538D+00  .310218750000D+03  .307243040137D+01 -.777318092704D-08
    -.136434254463D-09  .100000000000D+01  .156200000000D+04  .000000000000D+00
     .340000000000D+01  .000000000000D+00 -.372529029846D-08  .460000000000D+02
     .288006000000D+06  .400000000000D+01
 9 09 12 16 10  0  0.0  .943229533732D-04  .216004991671D-11  .000000000000D+00
     .980000000000D+02 -.137031250000D+03  .402302471798D-08 -.247429902078D+01
    -.691227614880D-05  .206304292660D-01  .292062759399D-05  .515362338066D+04
     .295200000000D+06  .216066837311D-06 -.920485630973D+00  .119209289551D-06
     .978679871408D+00  .325968750000D+03  .152279658753D+01 -.770710674622D-08
    -.109290266664D-09  .100000000000D+01  .156200000000D+04  .000000000000D+00
     .240000000000D+01  .000000000000D+00 -.558793544769D-08  .980000000000D+02
     .288006000000D+06  .400000000000D+01
10 09 12 16 10  0  0.0 -.304672867060D-04 -.795807864051D-12  .000000000000D+00
     .131000000000D+03  .111375000000D+03  .425910598029D-08  .130977374362D+01
     .594742596149D-05  .889779964928D-02  .987201929092D-05  .515342671013D+04
     .295200000000D+06 -.763684511185D-07 -.296122181937D+01  .428408384323D-07
     .955947869717D+00  .189406250000D+03  .627234320290D+00 -.788139972051D-08
    -.231081054025D-09  .100000000000D+01  .156200000000D+04  .000000000000D+00
     .485000000000D+01  .000000000000D+00 -.279396772385D-08  .131000000000D+03
     .288006000000D+06  .400000000000D+01
12 09 12 16 10  0  0.0 -.175866298378D-03  .511590769747D-11  .000000000000D+00
     .120000000000D+02 -.680000000000D+02  .404266839337D-08 -.155388076597D+01
    -.355578958988D-05  .323035742622D-02  .113062560558D-04  .515379742432D+04
     .295200000000D+06 -.763684511185D-07  .164847664190D+00 -.689178705215D-07
     .969434258405D+00  .164281250000D+03 -.564002467321D+00 -.763960393445D-08
     .438946855327D-09  .100000000000D+01  .156200000000D+04  .000000000000D+00
     .240000000000D+01  .000000000000D+00 -.121071934700D-07  .120000000000D+02
     .288006000000D+06  .400000000000D+01
14 09 12 16 10  0  0.0 -.115521252155D-04  .466116034659D-11  .000000000000D+00
     .750000000000D+02  .786562500000D+02  .409909931537D-08  .627268738364D+00
     .394321978092D-05  .507012708113D-02  .989064574242D-06  .515368468285D+04
     .295200000000D+06 -.104308128357D-06 -.189415848678D+01  .931322574615D-08
     .987134153985D+00  .373406250000D+03 -.210077580782D+01 -.820427031222D-08
     .203222750758D-09  .100000000000D+01  .156200000000D+04  .000000000000D+00
     .240000000000D+01  .000000000000D+00 -.884756445885D-08  .750000000000D+02
     .288006000000D+06  .400000000000D+01
15 09 12 16 10  0  0.0 -.317750964314D-03  .125055521494D-11  .000000000000D+00
     .890000000000D+02  .775937500000D+02  .475734101949D-08  .804333143658D+00
     .402145087719D-05  .216297048610D-02  .623986124992D-06  .515370114326D+04
     .295200000000D+06  .949949026108D-07 -.195307520832D+01 -.484287738800D-07
     .954964602977D+00  .362875000000D+03 -.423150125284D+00 -.844606609827D-08
     .211437378644D-09  .100000000000D+01  .156200000000D+04  .000000000000D+00
     .340000000000D+01  .000000000000D+00 -.977888703346D-08  .890000000000D+02
     .288006000000D+06  .400000000000D+01
16 09 12 16 10  0  0.0 -.199796631932D-04 -.420641299570D-11  .000000000000D+00
     .450000000000D+02 -.800312500000D+02  .406231206875D-08  .232783504056D+01
    -.394135713577D-05  .542434875388D-02  .108536332846D-04  .515368216133D+04
     .295200000000D+06  .931322574615D-08  .182062399081D+00  .184401869774D-06
     .970749557810D+00  .175187500000D+03 -.273482851864D+00 -.757460122683D-08
     .367872466222D-09  .100000000000D+01  .156200000000D+04  .000000000000D+00
     .240000000000D+01  .000000000000D+00 -.977888703346D-08  .450000000000D+02
     .288006000000D+06  .400000000000D+01
17 09 12 16 10  0  0.0  .112358946353D-03  .363797880709D-11  .000000000000D+00
     .700000000000D+01  .189687500000D+02  .496734976720D-08  .113369140255D+01
     .101886689663D-05  .488323892932D-02  .589154660702D-05  .515375570869D+04
     .295200000000D+06  .298023223877D-07  .122467512015D+01  .819563865662D-07
     .959525342253D+00  .266187500000D+03 -.264242967210D+01 -.817248327387D-08
     .246438836595D-09  .100000000000D+01  .156200000000D+04  .000000000000D+00
     .240000000000D+01  .000000000000D+00 -.102445483208D-07  .700000000000D+01
     .288006000000D+06  .400000000000D+01
18 09 12 16 10  0  0.0  .350554473698D-04  .261479726760D-11  .000000000000D+00
     .410000000000D+02  .122812500000D+03  .445197115675D-08  .251892762333D+01
     .627897679806D-05  .108956254553D-01  .100992619991D-04  .515366175079D+04
     .295200000000D+06 -.372529029846D-07 -.295884356223D+01 -.210478901863D-06
     .939948952875D+00  .170843750000D+03 -.235633018316D+01 -.776139472182D-08
    -.964325882329D-10  .100000000000D+01  .156200000000D+04  .000000000000D+00
     .240000000000D+01  .000000000000D+00 -.107102096081D-07  .410000000000D+02
     .288006000000D+06  .400000000000D+01
